"K04554.01" "Sol"
{
    Class "Planet"
    Texture "neptune.jpg"
    Radius 16646.58
    EllipticalOrbit
    {
        Period 8.077246
        SemiMajorAxis 0.084700
        Eccentricity 0.000000
        Inclination 63.830000
    }
}

"K04555.01" "Sol"
{
    Class "Planet"
    Texture "neptune.jpg"
    Radius 8865.42
    EllipticalOrbit
    {
        Period 364.087330
        SemiMajorAxis 0.914900
        Eccentricity 0.000000
        Inclination 89.950000
    }
}

"K04557.01" "Sol"
{
    Class "Planet"
    Texture "neptune.jpg"
    Radius 5293.74
    EllipticalOrbit
    {
        Period 5.756520
        SemiMajorAxis 0.064700
        Eccentricity 0.000000
        Inclination 89.240000
    }
}

"K04626.01" "Sol"
{
    Class "Planet"
    Texture "neptune.jpg"
    Radius 16965.48
    EllipticalOrbit
    {
        Period 91.957230
        SemiMajorAxis 0.412700
        Eccentricity 0.000000
        Inclination 89.990000
    }
}

"K04627.01" "Sol"
{
    Class "Planet"
    Texture "neptune.jpg"
    Radius 7589.82
    EllipticalOrbit
    {
        Period 7.517317
        SemiMajorAxis 0.074000
        Eccentricity 0.000000
        Inclination 89.350000
    }
}

"K04630.01" "Sol"
{
    Class "Planet"
    Texture "neptune.jpg"
    Radius 15689.88
    EllipticalOrbit
    {
        Period 44.696618
        SemiMajorAxis 0.255800
        Eccentricity 0.000000
        Inclination 89.300000
    }
}

"K04698.01" "Sol"
{
    Class "Planet"
    Texture "neptune.jpg"
    Radius 8163.84
    EllipticalOrbit
    {
        Period 8.527589
        SemiMajorAxis 0.088300
        Eccentricity 0.000000
        Inclination 89.160000
    }
}

"K04699.01" "Sol"
{
    Class "Planet"
    Texture "neptune.jpg"
    Radius 6888.24
    EllipticalOrbit
    {
        Period 3.077142
        SemiMajorAxis 0.043500
        Eccentricity 0.000000
        Inclination 56.210000
    }
}

"K04700.01" "Sol"
{
    Class "Planet"
    Texture "neptune.jpg"
    Radius 7653.60
    EllipticalOrbit
    {
        Period 3.834884
        SemiMajorAxis 0.045600
        Eccentricity 0.000000
        Inclination 89.030000
    }
}

"K04558.01" "Sol"
{
    Class "Planet"
    Texture "neptune.jpg"
    Radius 7207.14
    EllipticalOrbit
    {
        Period 8.823400
        SemiMajorAxis 0.079300
        Eccentricity 0.000000
        Inclination 89.880000
    }
}

"K04632.01" "Sol"
{
    Class "Planet"
    Texture "neptune.jpg"
    Radius 84508.50
    EllipticalOrbit
    {
        Period 40.069148
        SemiMajorAxis 0.212500
        Eccentricity 0.000000
        Inclination 87.810000
    }
}

"K04633.01" "Sol"
{
    Class "Planet"
    Texture "neptune.jpg"
    Radius 7143.36
    EllipticalOrbit
    {
        Period 11.693345
        SemiMajorAxis 0.106700
        Eccentricity 0.000000
        Inclination 88.430000
    }
}

"K04634.01" "Sol"
{
    Class "Planet"
    Texture "neptune.jpg"
    Radius 6250.44
    EllipticalOrbit
    {
        Period 4.027454
        SemiMajorAxis 0.049400
        Eccentricity 0.000000
        Inclination 89.220000
    }
}

"K03196.01" "Sol"
{
    Class "Planet"
    Texture "neptune.jpg"
    Radius 3763.02
    EllipticalOrbit
    {
        Period 4.960611
        SemiMajorAxis 0.058400
        Eccentricity 0.000000
        Inclination 89.750000
    }
}

"K04705.01" "Sol"
{
    Class "Planet"
    Texture "neptune.jpg"
    Radius 6569.34
    EllipticalOrbit
    {
        Period 1.473324
        SemiMajorAxis 0.023900
        Eccentricity 0.000000
        Inclination 88.580000
    }
}

"K04495.01" "Sol"
{
    Class "Planet"
    Texture "neptune.jpg"
    Radius 8865.42
    EllipticalOrbit
    {
        Period 5.932182
        SemiMajorAxis 0.065000
        Eccentricity 0.000000
        Inclination 89.460000
    }
}

"K04496.01" "Sol"
{
    Class "Planet"
    Texture "neptune.jpg"
    Radius 15370.98
    EllipticalOrbit
    {
        Period 96.384483
        SemiMajorAxis 0.426800
        Eccentricity 0.000000
        Inclination 89.960000
    }
}

"K07681.01" "Sol"
{
    Class "Planet"
    Texture "neptune.jpg"
    Radius 5867.76
    EllipticalOrbit
    {
        Period 6.055520
        SemiMajorAxis 0.063000
        Eccentricity 0.000000
        Inclination 89.330000
    }
}

"K04563.01" "Sol"
{
    Class "Planet"
    Texture "neptune.jpg"
    Radius 10842.60
    EllipticalOrbit
    {
        Period 54.333582
        SemiMajorAxis 0.273100
        Eccentricity 0.000000
        Inclination 87.970000
    }
}

"K03165.01" "Sol"
{
    Class "Planet"
    Texture "neptune.jpg"
    Radius 6505.56
    EllipticalOrbit
    {
        Period 4.117544
        SemiMajorAxis 0.052700
        Eccentricity 0.000000
        Inclination 87.420000
    }
}

"K04636.01" "Sol"
{
    Class "Planet"
    Texture "neptune.jpg"
    Radius 39097.14
    EllipticalOrbit
    {
        Period 122.749053
        SemiMajorAxis 0.494500
        Eccentricity 0.000000
        Inclination 88.550000
    }
}

"K04637.01" "Sol"
{
    Class "Planet"
    Texture "neptune.jpg"
    Radius 5166.18
    EllipticalOrbit
    {
        Period 4.379923
        SemiMajorAxis 0.057500
        Eccentricity 0.000000
        Inclination 81.190000
    }
}

"K04709.01" "Sol"
{
    Class "Planet"
    Texture "neptune.jpg"
    Radius 8482.74
    EllipticalOrbit
    {
        Period 3.708586
        SemiMajorAxis 0.044500
        Eccentricity 0.000000
        Inclination 89.550000
    }
}

"K04710.01" "Sol"
{
    Class "Planet"
    Texture "neptune.jpg"
    Radius 8291.40
    EllipticalOrbit
    {
        Period 9.452772
        SemiMajorAxis 0.085900
        Eccentricity 0.000000
        Inclination 86.720000
    }
}

"K04711.01" "Sol"
{
    Class "Planet"
    Texture "neptune.jpg"
    Radius 6888.24
    EllipticalOrbit
    {
        Period 4.363831
        SemiMajorAxis 0.049300
        Eccentricity 0.000000
        Inclination 88.960000
    }
}

"K04497.01" "Sol"
{
    Class "Planet"
    Texture "neptune.jpg"
    Radius 6952.02
    EllipticalOrbit
    {
        Period 6.830062
        SemiMajorAxis 0.067500
        Eccentricity 0.000000
        Inclination 89.980000
    }
}

"K04498.01" "Sol"
{
    Class "Planet"
    Texture "neptune.jpg"
    Radius 142994.76
    EllipticalOrbit
    {
        Period 17.162259
        SemiMajorAxis 0.131900
        Eccentricity 0.000000
        Inclination 78.380000
    }
}

"K04499.01" "Sol"
{
    Class "Planet"
    Texture "neptune.jpg"
    Radius 6633.12
    EllipticalOrbit
    {
        Period 5.198986
        SemiMajorAxis 0.057800
        Eccentricity 0.000000
        Inclination 88.410000
    }
}

"K04567.01" "Sol"
{
    Class "Planet"
    Texture "neptune.jpg"
    Radius 51661.80
    EllipticalOrbit
    {
        Period 14.744260
        SemiMajorAxis 0.118200
        Eccentricity 0.000000
        Inclination 64.500000
    }
}

"K04570.01" "Sol"
{
    Class "Planet"
    Texture "neptune.jpg"
    Radius 13585.14
    EllipticalOrbit
    {
        Period 35.017505
        SemiMajorAxis 0.202600
        Eccentricity 0.000000
        Inclination 88.990000
    }
}

"K03197.01" "Sol"
{
    Class "Planet"
    Texture "neptune.jpg"
    Radius 6122.88
    EllipticalOrbit
    {
        Period 22.599501
        SemiMajorAxis 0.157700
        Eccentricity 0.000000
        Inclination 89.830000
    }
}

"K04503.01" "Sol"
{
    Class "Planet"
    Texture "neptune.jpg"
    Radius 9822.12
    EllipticalOrbit
    {
        Period 5.890895
        SemiMajorAxis 0.065000
        Eccentricity 0.000000
        Inclination 89.120000
    }
}

"K04504.01" "Sol"
{
    Class "Planet"
    Texture "neptune.jpg"
    Radius 9184.32
    EllipticalOrbit
    {
        Period 4.130298
        SemiMajorAxis 0.048000
        Eccentricity 0.000000
        Inclination 89.820000
    }
}

"K04575.01" "Sol"
{
    Class "Planet"
    Texture "neptune.jpg"
    Radius 12628.44
    EllipticalOrbit
    {
        Period 201.325036
        SemiMajorAxis 0.735000
        Eccentricity 0.000000
        Inclination 89.610000
    }
}

"K04643.01" "Sol"
{
    Class "Planet"
    Texture "neptune.jpg"
    Radius 9120.54
    EllipticalOrbit
    {
        Period 5.593464
        SemiMajorAxis 0.061700
        Eccentricity 0.000000
        Inclination 89.830000
    }
}

"K04644.01" "Sol"
{
    Class "Planet"
    Texture "neptune.jpg"
    Radius 7844.94
    EllipticalOrbit
    {
        Period 3.449281
        SemiMajorAxis 0.042600
        Eccentricity 0.000000
        Inclination 88.080000
    }
}

"K04647.01" "Sol"
{
    Class "Planet"
    Texture "neptune.jpg"
    Radius 12564.66
    EllipticalOrbit
    {
        Period 37.904389
        SemiMajorAxis 0.224100
        Eccentricity 0.000000
        Inclination 88.780000
    }
}

"K03196.02" "Sol"
{
    Class "Planet"
    Texture "neptune.jpg"
    Radius 4911.06
    EllipticalOrbit
    {
        Period 6.882978
        SemiMajorAxis 0.072600
        Eccentricity 0.000000
        Inclination 87.780000
    }
}

"K04713.01" "Sol"
{
    Class "Planet"
    Texture "neptune.jpg"
    Radius 8674.08
    EllipticalOrbit
    {
        Period 8.796317
        SemiMajorAxis 0.083600
        Eccentricity 0.000000
        Inclination 75.140000
    }
}

"K04714.01" "Sol"
{
    Class "Planet"
    Texture "neptune.jpg"
    Radius 6888.24
    EllipticalOrbit
    {
        Period 2.049602
        SemiMajorAxis 0.030100
        Eccentricity 0.000000
        Inclination 88.160000
    }
}

"K04715.01" "Sol"
{
    Class "Planet"
    Texture "neptune.jpg"
    Radius 9184.32
    EllipticalOrbit
    {
        Period 53.285584
        SemiMajorAxis 0.258200
        Eccentricity 0.000000
        Inclination 88.980000
    }
}

"K04716.01" "Sol"
{
    Class "Planet"
    Texture "neptune.jpg"
    Radius 3890.58
    EllipticalOrbit
    {
        Period 5.894334
        SemiMajorAxis 0.065700
        Eccentricity 0.000000
        Inclination 89.990000
    }
}

